ONEWEB-0564             
1 55801U 23029F   24122.09724174  .00000070  00000+0  14096-3 0  9999
2 55801  87.9201  69.0842 0002209  71.0876 289.0497 13.20770008 59280
ONEWEB-0638             
1 55802U 23029G   24121.92602280 -.00000142  00000+0 -41655-3 0  9997
2 55802  87.8935  84.4123 0001281  82.3033 277.8242 13.14503039 57288
ONEWEB-0639             
1 55803U 23029H   24121.90978785 -.00000183  00000+0 -49050-3 0  9994
2 55803  87.9115  99.6691 0002151 128.6331 231.4995 13.19725097 56386
ONEWEB-0640             
1 55804U 23029J   24121.93551650 -.00000012  00000+0 -67342-4 0  9992
2 55804  87.8930  84.4073 0001099  92.2858 267.8398 13.14506250 57303
ONEWEB-0641             
1 55805U 23029K   24122.20831994 -.00000211  00000+0 -55956-3 0  9994
2 55805  87.9111  99.5931 0001989  95.9751 264.1609 13.19724519 57126
ONEWEB-0642             
1 55806U 23029L   24121.90032135  .00000117  00000+0  26065-3 0  9993
2 55806  87.9116  99.6752 0002304 116.8162 243.3207 13.19725989 56387
ONEWEB-0643             
1 55807U 23029M   24122.13376346  .00000010  00000+0 -83769-5 0  9994
2 55807  87.8936  84.3442 0002719 102.8339 257.3095 13.14503404 58018
ONEWEB-0644             
1 55808U 23029N   24121.89556080 -.00000158  00000+0 -42750-3 0  9999
2 55808  87.9117  99.6713 0002181 105.6400 254.4973 13.19724855 56385
